NORAD_CAT_ID,OBJECT_NAME,OBJECT_TYPE,EPOCH,MEAN_MOTION,ECCENTRICITY,INCLINATION,RA_OF_ASC_NODE,ARG_OF_PERICENTER,MEAN_ANOMALY,BSTAR,MEAN_MOTION_DOT,MEAN_MOTION_DDOT,TLE_LINE0,TLE_LINE1,TLE_LINE2,SEMIMAJOR_AXIS,PERIOD,APOGEE,PERIGEE,DECAYED
51787.0,STARLINK-3619,PAYLOAD,2022-06-03 09:28:53,15.08845407,0.0001835,53.2164,43.0549,52.416,307.6998,3.5239e-05,2.73e-06,0.0,0 STARLINK-3619,1 51787U 22017V   22154.39506771  .00000273  00000-0  35239-4 0  9990,2 51787  53.2164  43.0549 0001835  52.4160 307.6998 15.08845407 14651,6917.864000000001,95.437,540.998,538.4590000000002,0.0
51787.0,STARLINK-3619,PAYLOAD,2022-06-03 19:01:13,15.08832122,0.0001936,53.2172,41.272,58.4604,301.6577,1.8654e-05,9e-08,0.0,0 STARLINK-3619,1 51787U 22017V   22154.79251553  .00000009  00000-0  18654-4 0  9998,2 51787  53.2172  41.2720 0001936  58.4604 301.6577 15.08832122 16358,6917.904,95.438,541.109,538.43,0.0
51787.0,STARLINK-3619,PAYLOAD,2022-06-04 09:19:41,15.08838448,0.0001955,53.2171,38.5956,57.4602,302.6579,5.7296e-05,6.24e-06,0.0,0 STARLINK-3619,1 51787U 22017V   22155.38867178  .00000624  00000-0  57296-4 0  9998,2 51787  53.2171  38.5956 0001955  57.4602 302.6579 15.08838448 16445,6917.885,95.438,541.1030000000002,538.398,0.0
51787.0,STARLINK-3619,PAYLOAD,2022-06-05 22:00:00,15.088326,0.0001815,53.2148,31.7366,53.684,330.7457,-0.00091935,-0.00014887,0.0,0 STARLINK-3619,1 51787U 22017V   22156.91667824 -.00014887  00000-0 -91935-3 0  9999,2 51787  53.2148  31.7366 0001815  53.6840 330.7457 15.08832600 16672,6917.903,95.438,541.024,538.512,0.0
51787.0,STARLINK-3619,PAYLOAD,2022-06-06 14:00:01,15.08821397,0.000173,53.215,28.7418,58.885,348.719,0.0027679,0.00044016,0.0,0 STARLINK-3619,1 51787U 22017V   22157.58334491  .00044016  00000-0  27679-2 0  9992,2 51787  53.2150  28.7418 0001730  58.8850 348.7190 15.08821397 16778,6917.937,95.439,540.999,538.605,0.0
51787.0,STARLINK-3619,PAYLOAD,2022-06-06 22:00:00,15.0885048,0.0001909,53.2152,27.2472,54.3624,4.8354,-0.00070791,-0.0001154,0.0,0 STARLINK-3619,1 51787U 22017V   22157.91667824 -.00011540  00000-0 -70791-3 0  9990,2 51787  53.2152  27.2472 0001909  54.3624   4.8354 15.08850480  1302,6917.848000000001,95.437,541.034,538.393,0.0
51787.0,STARLINK-3619,PAYLOAD,2022-06-07 06:00:00,15.08868298,0.0001869,53.2152,25.7502,52.6993,18.0991,-0.0013827,-0.00022244,0.0,0 STARLINK-3619,1 51787U 22017V   22158.25001157 -.00022244  00000-0 -13827-2 0  9998,2 51787  53.2152  25.7502 0001869  52.6993  18.0991 15.08868298 16872,6917.794,95.436,540.952,538.366,0.0
51787.0,STARLINK-3619,PAYLOAD,2022-06-07 14:00:01,15.08860078,0.0001758,53.2157,24.2524,58.9924,23.4274,-0.00011348,-2.095e-05,0.0,0 STARLINK-3619,1 51787U 22017V   22158.58334491 -.00002095  00000-0 -11348-3 0  9993,2 51787  53.2157  24.2524 0001758  58.9924  23.4274 15.08860078  1309,6917.819,95.436,540.9,538.4680000000002,0.0
51787.0,STARLINK-3619,PAYLOAD,2022-06-07 22:00:00,15.0884478,0.0001861,53.2161,22.7575,51.9422,42.089,-0.00018361,-3.21e-05,0.0,0 STARLINK-3619,1 51787U 22017V   22158.91667824 -.00003210  00000-0 -18361-3 0  9991,2 51787  53.2161  22.7575 0001861  51.9422  42.0890 15.08844780  1307,6917.866,95.437,541.018,538.443,0.0
51787.0,STARLINK-3619,PAYLOAD,2022-06-08 06:00:02,15.08878164,0.0001761999999999,53.2158,21.2607,51.0771,54.6105,-0.0040794,-0.00064697,0.0,0 STARLINK-3619,1 51787U 22017V   22159.25002315 -.00064697  00000-0 -40794-2 0  9997,2 51787  53.2158  21.2607 0001762  51.0771  54.6105 15.08878164 17028,6917.764,95.435,540.8480000000002,538.41,0.0
51787.0,STARLINK-3619,PAYLOAD,2022-06-08 14:00:01,15.08821358,0.0001622,53.2162,19.7631,57.0848,60.1522,0.0021333,0.00033809,0.0,0 STARLINK-3619,1 51787U 22017V   22159.58334491  .00033809  00000-0  21333-2 0  9993,2 51787  53.2162  19.7631 0001622  57.0848  60.1522 15.08821358  1300,6917.937,95.439,540.924,538.68,0.0
51787.0,STARLINK-3619,PAYLOAD,2022-06-08 22:00:01,15.08834949,0.0001779,53.2162,18.2686,51.3141,77.5716,-4.0382e-05,-9.31e-06,0.0,0 STARLINK-3619,1 51787U 22017V   22159.91668981 -.00000931  00000-0 -40382-4 0  9993,2 51787  53.2162  18.2686 0001779  51.3141  77.5716 15.08834949 17124,6917.896,95.438,540.992,538.53,0.0
51787.0,STARLINK-3619,PAYLOAD,2022-06-09 14:00:01,15.08828923,0.0001544,53.2164,15.2741,57.2412,94.7743,0.00041074,6.253e-05,0.0,0 STARLINK-3619,1 51787U 22017V   22160.58334491  .00006253  00000-0  41074-3 0  9993,2 51787  53.2164  15.2741 0001544  57.2412  94.7743 15.08828923  1300,6917.9140000000025,95.438,540.847,538.711,0.0
51787.0,STARLINK-3619,PAYLOAD,2022-06-09 22:00:00,15.08822903,0.0001679,53.2162,13.7797,49.9834,113.6177,0.0003641,5.509e-05,0.0,0 STARLINK-3619,1 51787U 22017V   22160.91667824  .00005509  00000-0  36410-3 0  9990,2 51787  53.2162  13.7797 0001679  49.9834 113.6177 15.08822903  1301,6917.933000000001,95.439,540.9590000000002,538.636,0.0
51787.0,STARLINK-3619,PAYLOAD,2022-06-10 00:00:00,15.08808064,0.0001702,53.2162,13.4058,48.5594,207.9404,0.0026654,0.0004235,0.0,0 STARLINK-3619,1 51787U 22017V   22161.00001157  .00042350  00000-0  26654-2 0  9995,2 51787  53.2162  13.4058 0001702  48.5594 207.9404 15.08808064 17290,6917.978,95.44,541.02,538.6659999999998,0.0
51787.0,STARLINK-3619,PAYLOAD,2022-06-10 14:00:01,15.08838885,0.0001514,53.2161,10.785,58.6609,128.1072,0.0012352,0.00019424,0.0,0 STARLINK-3619,1 51787U 22017V   22161.58334491  .00019424  00000-0  12352-2 0  9994,2 51787  53.2161  10.7850 0001514  58.6609 128.1072 15.08838885  1303,6917.884,95.438,540.7959999999998,538.701,0.0
51787.0,STARLINK-3619,PAYLOAD,2022-06-10 22:00:00,15.08837169,0.0001684,53.2158,9.2904,51.6715,146.7005,0.00088202,0.00013776,0.0,0 STARLINK-3619,1 51787U 22017V   22161.91667824  .00013776  00000-0  88202-3 0  9992,2 51787  53.2158   9.2904 0001684  51.6715 146.7005 15.08837169 17438,6917.889,95.438,540.919,538.589,0.0
51787.0,STARLINK-3619,PAYLOAD,2022-06-11 22:00:00,15.08820645,0.000159,53.2151,4.8013,49.541,183.6008,0.001471,0.00023188,0.0,0 STARLINK-3619,1 51787U 22017V   22162.91667824  .00023188  00000-0  14710-2 0  9993,2 51787  53.2151   4.8013 0001590  49.5410 183.6008 15.08820645 17587,6917.94,95.439,540.905,538.705,0.0
51787.0,STARLINK-3619,PAYLOAD,2022-06-12 14:00:01,15.08850667,0.0001464,53.2148,1.8066,58.269,198.0489,0.00060966,9.431e-05,0.0,0 STARLINK-3619,1 51787U 22017V   22163.58334491  .00009431  00000-0  60966-3 0  9998,2 51787  53.2148   1.8066 0001464  58.2690 198.0489 15.08850667  1308,6917.848000000001,95.437,540.726,538.7,0.0
51787.0,STARLINK-3619,PAYLOAD,2022-06-12 22:00:00,15.0884955,0.0001667,53.2147,0.3118,50.7042,217.2288,0.00011827,1.595e-05,0.0,0 STARLINK-3619,1 51787U 22017V   22163.91667824  .00001595  00000-0  11827-3 0  9999,2 51787  53.2147   0.3118 0001667  50.7042 217.2288 15.08849550 17736,6917.851,95.437,540.869,538.563,0.0
51787.0,STARLINK-3619,PAYLOAD,2022-06-13 14:00:01,15.0885734,0.0001597,53.2147,357.3169,59.2125,231.9285,-1.2104e-05,-4.81e-06,0.0,0 STARLINK-3619,1 51787U 22017V   22164.58334491 -.00000481  00000-0 -12104-4 0  9999,2 51787  53.2147 357.3169 0001597  59.2125 231.9285 15.08857340  1307,6917.8269999999975,95.436,540.797,538.5880000000002,0.0
51787.0,STARLINK-3619,PAYLOAD,2022-06-13 22:00:00,15.08829824,0.0001730999999999,53.2147,355.82199999999995,50.3907,252.371,0.00076685,0.00011934,0.0,0 STARLINK-3619,1 51787U 22017V   22164.91667824  .00011934  00000-0  76685-3 0  9991,2 51787  53.2147 355.8220 0001731  50.3907 252.3710 15.08829824  1304,6917.911,95.438,540.974,538.5790000000002,0.0
51787.0,STARLINK-3619,PAYLOAD,2022-06-14 06:00:00,15.08853894,0.0001539,53.2147,354.324,50.8719,263.4761,-0.0021427,-0.0003424,0.0,0 STARLINK-3619,1 51787U 22017V   22165.25001157 -.00034240  00000-0 -21427-2 0  9990,2 51787  53.2147 354.3240 0001539  50.8719 263.4761 15.08853894 17931,6917.8380000000025,95.437,540.768,538.638,0.0
51787.0,STARLINK-3619,PAYLOAD,2022-06-14 14:00:01,15.08838298,0.0001514,53.215,352.8271,54.4284,271.5208,-0.00037107,-6.188e-05,0.0,0 STARLINK-3619,1 51787U 22017V   22165.58334491 -.00006188  00000-0 -37107-3 0  9999,2 51787  53.2150 352.8271 0001514  54.4284 271.5208 15.08838298  1303,6917.886,95.438,540.798,538.703,0.0
51787.0,STARLINK-3619,PAYLOAD,2022-06-14 22:00:00,15.08816856,0.0001704,53.2151,351.3323,47.4152,290.1226,0.0017354,0.00027421,0.0,0 STARLINK-3619,1 51787U 22017V   22165.91667824  .00027421  00000-0  17354-2 0  9997,2 51787  53.2151 351.3323 0001704  47.4152 290.1226 15.08816856 18034,6917.951,95.439,540.995,538.637,0.0
51787.0,STARLINK-3619,PAYLOAD,2022-06-15 14:00:01,15.08834633,0.0001644,53.2156,348.3376,55.6779,305.0119,-0.00020871,-3.608e-05,0.0,0 STARLINK-3619,1 51787U 22017V   22166.58334491 -.00003608  00000-0 -20871-3 0  9994,2 51787  53.2156 348.3376 0001644  55.6779 305.0119 15.08834633 18133,6917.897,95.438,540.899,538.624,0.0
51787.0,STARLINK-3619,PAYLOAD,2022-06-15 22:00:00,15.08813817,0.0001803,53.2156,346.8427,49.2181,323.0659,0.0032823,0.000523,0.0,0 STARLINK-3619,1 51787U 22017V   22166.91667824  .00052300  00000-0  32823-2 0  9990,2 51787  53.2156 346.8427 0001803  49.2181 323.0659 15.08813817  1307,6917.96,95.439,541.073,538.578,0.0
51787.0,STARLINK-3619,PAYLOAD,2022-06-16 02:00:01,15.08853221,0.000176,53.2154,346.0938,49.1195,148.951,-0.00015065,-2.686e-05,0.0,0 STARLINK-3619,1 51787U 22017V   22167.08334491 -.00002686  00000-0 -15065-3 0  9994,2 51787  53.2154 346.0938 0001760  49.1195 148.9510 15.08853221  1303,6917.84,95.437,540.923,538.487,0.0
51787.0,STARLINK-3619,PAYLOAD,2022-06-19 14:00:01,15.08852602,0.0001643,53.2152,330.3815,56.2467,83.5478,-0.0015227,-0.00024449,0.0,0 STARLINK-3619,1 51787U 22017V   22170.58334491 -.00024449  00000-0 -15227-2 0  9993,2 51787  53.2152 330.3815 0001643  56.2467  83.5478 15.08852602  1301,6917.842,95.437,540.8430000000002,538.57,0.0
